HAWK-6B                 
1 55324U 23011A   26192.51015779  .00002734  00000+0  12152-3 0  9990
2 55324  40.4968 210.1816 0003600 221.4345 138.6192 15.23133888191554
HAWK-6C                 
1 55326U 23011C   26192.50953218  .00002830  00000+0  12549-3 0  9997
2 55326  40.4958 207.0206 0004112 211.7800 148.2762 15.23135553191562
HAWK-6A                 
1 55327U 23011D   26192.50956735  .00002662  00000+0  11852-3 0  9994
2 55327  40.4966 208.6476 0003628 209.4630 150.5976 15.23134269191560
HAWK-7A                 
1 56191U 23054P   26192.74187363  .00003309  00000+0  12527-3 0  9999
2 56191  97.2673  79.4553 0001779 350.0874  10.0330 15.27609969180776
HAWK-7B                 
1 56193U 23054R   26192.74180111  .00003010  00000+0  11419-3 0  9993
2 56193  97.2701  77.7279 0001747  22.4503 337.6813 15.27606976180779
HAWK-7C                 
1 56200U 23054Y   26192.67618003  .00003282  00000+0  12426-3 0  9990
2 56200  97.2677  78.4249 0001280   7.1495 352.9762 15.27610645180767
